#aV2009  7 19  0  0   .00000000      96 DD+AD WGS84 FIT  NGA
## 1541       .00000000   900.00000000 55031  .0000000000000
+   31     1  2  3  4  6  7  8  9 10 11 12 13 14 15 16 17 18
+         19 20 21 22 23 24 25 26 27 28 29 30 31 32  0  0  0
+          0  0  0  0  0  0  0  0  0  0  0  0  0  0  0  0  0
+          0  0  0  0  0  0  0  0  0  0  0  0  0  0  0  0  0
+          0  0  0  0  0  0  0  0  0  0  0  0  0  0  0  0  0
++         0  0  0  0  0  0  0  0  0  0  0  0  0  0  0  0  0
++         0  0  0  0  0  0  0  0  0  0  0  0  0  0  0  0  0
++         0  0  0  0  0  0  0  0  0  0  0  0  0  0  0  0  0
++         0  0  0  0  0  0  0  0  0  0  0  0  0  0  0  0  0
++         0  0  0  0  0  0  0  0  0  0  0  0  0  0  0  0  0
%c cc cc ccc ccc cccc cccc cccc cccc ccccc ccccc ccccc ccccc
%c cc cc ccc ccc cccc cccc cccc cccc ccccc ccccc ccccc ccccc
%f  0.0000000  0.000000000  0.00000000000  0.000000000000000
%f  0.0000000  0.000000000  0.00000000000  0.000000000000000
%i    0    0    0    0      0      0      0      0         0
%i    0    0    0    0      0      0      0      0         0
/*      NGA, ST. LOUIS,MO.                                  
/*   EPHEMERIS COMPUTED FROM  3 DAYS OF DATA                
/* CCCCCCCCCCCCCCCCCCCCCCCCCCCCCCCCCCCCCCCCCCCCCCCCCCCCCCCCC
/* CCCCCCCCCCCCCCCCCCCCCCCCCCCCCCCCCCCCCCCCCCCCCCCCCCCCCCCCC
*  2009  7 19  9 30   .00000000                                                 
P  1  -7495.039893 -16489.056613 -19557.096446    -64.635806                    
V  1  23891.047066   5946.118409 -14135.406671       .031721                    
P  2  21893.663518 -10012.262206 -10816.869136    160.706911                    
V  2  -7708.497388  11913.764069 -27247.842614       .017905                    
P  3 -13472.904731   8753.545700  20795.403531    422.064510                    
V  3  -9843.166094 -25500.437735   4647.352781       .050443                    
P  4  19524.131368    190.183678 -18299.299002   -181.435378                    
V  4 -15756.888431  16695.719180 -16396.909911      -.165697                    
P  6 -15406.699202   3892.154547  21473.841226    196.565250                    
V  6  -7234.042903 -25937.387970   -418.648610       .106761                    
P  7   1110.472291  17583.818919  19810.325793     14.973664                    
V  7 -19276.852545  16313.812726 -13512.218935      -.006823                    
P  8  12955.655568   7917.287917  21804.344206   -212.601435                    
V  8 -21294.054384  17643.949708   5739.907285      -.017277                    
P  9  13600.267963 -21438.355897  -8321.087243     67.327058                    
V  9   8318.442625  -5338.050636  29807.533507       .020843                    
P 10  22220.030018  -3185.100253  14289.340315    -19.494109                    
V 10  16722.668253   7703.810707 -23684.343856      -.007669                    
P 11  -9135.614528  23696.187755  -7348.273338    -11.248366                    
V 11  -9372.422538   4802.143525  28300.785992      -.016649                    
P 12   5386.514076 -14052.886106 -21819.427897   -248.252283                    
V 12  26515.336333   8471.273942   1208.698422       .061140                    
P 13   5922.618865  25760.908776   2406.985604    301.678976                    
V 13  -1183.769716   3453.561326 -32306.170188       .007052                    
P 14 -13873.620327 -15710.320707 -16267.159651    -77.824575                    
V 14  -2599.621439 -20655.238403  21877.502438       .056094                    
P 15   9484.762733 -16415.883809  18597.712899   -309.315213                    
V 15   7142.418631  22553.301573  16345.727330      -.024369                    
P 16 -24652.656455   -801.078380  10220.897209     31.379243                    
V 16 -11506.194354  -5994.053802 -28128.100832      -.036276                    
P 17  14404.280953  16276.935679 -15323.230441     71.388838                    
V 17   2145.326025  19490.464435  22422.859526       .024495                    
P 18 -14925.788475 -16548.088577  14966.408866    -38.773641                    
V 18  18204.474499   3897.410502  22445.044457       .031358                    
P 19  -9590.229354  17680.725591  17268.229503     18.510142                    
V 19  -5214.154936 -21382.996780  19321.414909      -.013901                    
P 20  -3785.841325  15231.318758 -21550.340124     76.950911                    
V 20 -26155.368884  -7272.046876   -510.451324      -.009817                    
P 21  -4940.295705 -16128.298357  20661.704186      1.889209                    
V 21  20090.076652 -16343.860162  -8696.222319      -.021983                    
P 22 -23101.066013 -12120.838777   5373.659419    195.177634                    
V 22   7337.581416   -951.041164  30231.686278      -.006547                    
P 23  -1674.213176  24349.300058 -10144.913699    390.002063                    
V 23  -5209.928685 -12056.029197 -28490.186089      -.001612                    
P 24   9026.956894 -20804.793568  14158.498452    205.560653                    
V 24  14947.482883  -9700.281097 -23753.669453       .029623                    
P 25  -4816.764988  21369.030838  15495.126692    515.108648                    
V 25 -13797.079867  13115.633632 -22693.074827       .171666                    
P 26  -5883.492533 -25566.954187  -2286.268569     64.753918                    
V 26   1767.869412  -2591.505235  32607.903187       .001119                    
P 27  18052.249503 -19436.269491   -619.246939     66.885494                    
V 27   2847.691457    497.537879  32055.382716       .031857                    
P 28  21775.742731  13400.760196   8196.525853    -25.986206                    
V 28  -9876.920095  -1167.200323  29425.248326      -.001683                    
P 29  -5483.457013 -26011.620799    305.672800     40.825979                    
V 29   2703.865666   -815.798355 -31704.484860       .034282                    
P 30  -6366.593205 -16504.874068 -20210.615042    162.119398                    
V 30  24305.431498   5246.467551 -12090.760222       .027882                    
P 31 -19841.966554   2338.659070 -17369.204867    -63.969486                    
V 31  15371.926292 -16317.368816 -19390.681770      -.004809                    
P 32 -12243.963153  10530.689848 -20647.838275    229.563981                    
V 32 -24830.874885 -11053.787626   9178.689448      -.061766                    
EOF
